GLOBALSTAR M084         
1 38040U 11080A   24160.87123799 -.00000107  00000+0 -15807-4 0  9998
2 38040  52.0005 104.9812 0000548  14.1184  20.7095 12.62263209575520
GLOBALSTAR M080         
1 38041U 11080B   24161.15682050 -.00000109  00000+0 -29277-4 0  9999
2 38041  52.0054 105.5871 0000472 343.4467  29.8698 12.62273381575829
GLOBALSTAR M082         
1 38042U 11080C   24160.94745862 -.00000078  00000+0  14135-3 0  9997
2 38042  52.0089  61.6330 0001250  76.0448   4.6219 12.62270022576362
GLOBALSTAR M092         
1 38043U 11080D   24161.22271355 -.00000121  00000+0 -98789-4 0  9999
2 38043  52.0058 151.1503 0000308  21.8513 351.4847 12.62262881575060
GLOBALSTAR M090         
1 38044U 11080E   24160.95906429 -.00000078  00000+0  14622-3 0  9999
2 38044  51.9901  55.8869 0000947  76.8991 296.7918 12.62263820576481
GLOBALSTAR M086         
1 38045U 11080F   24161.16980363 -.00000082  00000+0  12317-3 0  9997
2 38045  51.9913  55.7657 0000522 158.5577 334.1183 12.62263117576554
GLOBALSTAR M097         
1 39072U 13005A   24161.48436319 -.00000095  00000+0  49326-4 0  9994
2 39072  52.0064 328.9813 0000988 116.6899 243.4069 12.62263630523828
GLOBALSTAR M093         
1 39073U 13005B   24161.14100299 -.00000084  00000+0  10936-3 0  9995
2 39073  51.9826 323.9254 0001081 120.1887 239.9086 12.62260035523778
